{
  "type": "FeatureCollection",
  "features": [
    {
      "type": "Feature",
      "properties": {
        "norad_id": 30555,
        "name": "FENGYUN 1C DEB",
        "group": "fengyun-1c-debris",
        "lat": -79.87952962890465,
        "lon": 161.24369373120106,
        "alt_km": 799.3943234265662,
        "timestamp": "2025-12-13T10:41:26.043392+00:00",
        "meta_object_name": "FENGYUN 1C DEB",
        "meta_object_id": "1999-025AKV",
        "meta_epoch": "2025-12-12T17:08:03.017184",
        "meta_mean_motion": 14.20806093,
        "meta_eccentricity": 0.00425326,
        "meta_inclination": 98.7575,
        "meta_ra_of_asc_node": 40.2409,
        "meta_arg_of_pericenter": 271.5438,
        "meta_mean_anomaly": 213.8637,
        "meta_ephemeris_type": 0,
        "meta_classification_type": "U",
        "meta_norad_cat_id": 30555,
        "meta_element_set_no": 999,
        "meta_rev_at_epoch": 96935,
        "meta_bstar": 0.0019775941,
        "meta_mean_motion_dot": 4.268e-05,
        "meta_mean_motion_ddot": 0,
        "tle_line1": "1 30555U 99025AKV 25346.71392381  .00004268  00000+0  19776-2 0  9998",
        "tle_line2": "2 30555  98.7575  40.2409 0042532 271.5438 213.8637 14.20806093969351"
      },
      "geometry": {
        "type": "Point",
        "coordinates": [
          161.24369373120106,
          -79.87952962890465
        ]
      }
    },
    {
      "type": "Feature",
      "properties": {
        "norad_id": 30556,
        "name": "FENGYUN 1C DEB",
        "group": "fengyun-1c-debris",
        "lat": 2.117034577538217,
        "lon": -19.653040835627444,
        "alt_km": 920.9971139386043,
        "timestamp": "2025-12-13T10:41:26.043405+00:00",
        "meta_object_name": "FENGYUN 1C DEB",
        "meta_object_id": "1999-025AKW",
        "meta_epoch": "2025-12-12T22:56:59.898048",
        "meta_mean_motion": 14.013677,
        "meta_eccentricity": 0.00679836,
        "meta_inclination": 98.7817,
        "meta_ra_of_asc_node": 340.2037,
        "meta_arg_of_pericenter": 236.8977,
        "meta_mean_anomaly": 178.1632,
        "meta_ephemeris_type": 0,
        "meta_classification_type": "U",
        "meta_norad_cat_id": 30556,
        "meta_element_set_no": 999,
        "meta_rev_at_epoch": 96260,
        "meta_bstar": 0.00039917353,
        "meta_mean_motion_dot": 5.71e-06,
        "meta_mean_motion_ddot": 0,
        "tle_line1": "1 30556U 99025AKW 25346.95624882  .00000571  00000+0  39917-3 0  9992",
        "tle_line2": "2 30556  98.7817 340.2037 0067983 236.8977 178.1632 14.01367700962605"
      },
      "geometry": {
        "type": "Point",
        "coordinates": [
          -19.653040835627444,
          2.117034577538217
        ]
      }
    },
    {
      "type": "Feature",
      "properties": {
        "norad_id": 30557,
        "name": "FENGYUN 1C DEB",
        "group": "fengyun-1c-debris",
        "lat": 30.542485047706087,
        "lon": -122.084588477597,
        "alt_km": 847.3757539381804,
        "timestamp": "2025-12-13T10:41:26.043415+00:00",
        "meta_object_name": "FENGYUN 1C DEB",
        "meta_object_id": "1999-025AKX",
        "meta_epoch": "2025-12-12T16:57:33.218208",
        "meta_mean_motion": 14.10797568,
        "meta_eccentricity": 0.00681694,
        "meta_inclination": 98.92,
        "meta_ra_of_asc_node": 51.865,
        "meta_arg_of_pericenter": 232.6006,
        "meta_mean_anomaly": 126.8946,
        "meta_ephemeris_type": 0,
        "meta_classification_type": "U",
        "meta_norad_cat_id": 30557,
        "meta_element_set_no": 999,
        "meta_rev_at_epoch": 96300,
        "meta_bstar": 0.0020121496,
        "meta_mean_motion_dot": 3.638e-05,
        "meta_mean_motion_ddot": 0,
        "tle_line1": "1 30557U 99025AKX 25346.70663447  .00003638  00000+0  20121-2 0  9999",
        "tle_line2": "2 30557  98.9200  51.8650 0068169 232.6006 126.8946 14.10797568963006"
      },
      "geometry": {
        "type": "Point",
        "coordinates": [
          -122.084588477597,
          30.542485047706087
        ]
      }
    },
    {
      "type": "Feature",
      "properties": {
        "norad_id": 30558,
        "name": "FENGYUN 1C DEB",
        "group": "fengyun-1c-debris",
        "lat": 29.26565500269026,
        "lon": 122.97051311616183,
        "alt_km": 1292.0926994623987,
        "timestamp": "2025-12-13T10:41:26.043425+00:00",
        "meta_object_name": "FENGYUN 1C DEB",
        "meta_object_id": "1999-025AKY",
        "meta_epoch": "2025-12-09T16:09:58.996800",
        "meta_mean_motion": 13.28486111,
        "meta_eccentricity": 0.04256851,
        "meta_inclination": 99.4674,
        "meta_ra_of_asc_node": 124.8713,
        "meta_arg_of_pericenter": 280.5886,
        "meta_mean_anomaly": 74.757,
        "meta_ephemeris_type": 0,
        "meta_classification_type": "U",
        "meta_norad_cat_id": 30558,
        "meta_element_set_no": 999,
        "meta_rev_at_epoch": 90717,
        "meta_bstar": 0.0051946283,
        "meta_mean_motion_dot": 3.853e-05,
        "meta_mean_motion_ddot": 0,
        "tle_line1": "1 30558U 99025AKY 25343.67359950  .00003853  00000+0  51946-2 0  9992",
        "tle_line2": "2 30558  99.4674 124.8713 0425685 280.5886  74.7570 13.28486111907174"
      },
      "geometry": {
        "type": "Point",
        "coordinates": [
          122.97051311616183,
          29.26565500269026
        ]
      }
    },
    {
      "type": "Feature",
      "properties": {
        "norad_id": 30560,
        "name": "FENGYUN 1C DEB",
        "group": "fengyun-1c-debris",
        "lat": -77.21831596468594,
        "lon": 23.396706895646634,
        "alt_km": 813.2115198485817,
        "timestamp": "2025-12-13T10:41:26.043436+00:00",
        "meta_object_name": "FENGYUN 1C DEB",
        "meta_object_id": "1999-025ALA",
        "meta_epoch": "2025-12-12T23:28:37.498656",
        "meta_mean_motion": 14.17026956,
        "meta_eccentricity": 0.01149245,
        "meta_inclination": 98.6637,
        "meta_ra_of_asc_node": 340.7126,
        "meta_arg_of_pericenter": 211.0323,
        "meta_mean_anomaly": 205.0548,
        "meta_ephemeris_type": 0,
        "meta_classification_type": "U",
        "meta_norad_cat_id": 30560,
        "meta_element_set_no": 999,
        "meta_rev_at_epoch": 97372,
        "meta_bstar": 0.00038533756,
        "meta_mean_motion_dot": 7.83e-06,
        "meta_mean_motion_ddot": 0,
        "tle_line1": "1 30560U 99025ALA 25346.97821179  .00000783  00000+0  38534-3 0  9996",
        "tle_line2": "2 30560  98.6637 340.7126 0114924 211.0323 205.0548 14.17026956973724"
      },
      "geometry": {
        "type": "Point",
        "coordinates": [
          23.396706895646634,
          -77.21831596468594
        ]
      }
    },
    {
      "type": "Feature",
      "properties": {
        "norad_id": 30561,
        "name": "FENGYUN 1C DEB",
        "group": "fengyun-1c-debris",
        "lat": 2.48789808907947,
        "lon": -10.821590074325957,
        "alt_km": 871.898601974217,
        "timestamp": "2025-12-13T10:41:26.043447+00:00",
        "meta_object_name": "FENGYUN 1C DEB",
        "meta_object_id": "1999-025ALB",
        "meta_epoch": "2025-12-12T18:30:39.199392",
        "meta_mean_motion": 14.11271447,
        "meta_eccentricity": 0.00606936,
        "meta_inclination": 98.7249,
        "meta_ra_of_asc_node": 348.9056,
        "meta_arg_of_pericenter": 113.8902,
        "meta_mean_anomaly": 66.2246,
        "meta_ephemeris_type": 0,
        "meta_classification_type": "U",
        "meta_norad_cat_id": 30561,
        "meta_element_set_no": 999,
        "meta_rev_at_epoch": 96978,
        "meta_bstar": 0.00048577529,
        "meta_mean_motion_dot": 8.5e-06,
        "meta_mean_motion_ddot": 0,
        "tle_line1": "1 30561U 99025ALB 25346.77128703  .00000850  00000+0  48578-3 0  9992",
        "tle_line2": "2 30561  98.7249 348.9056 0060693 113.8902  66.2246 14.11271447969786"
      },
      "geometry": {
        "type": "Point",
        "coordinates": [
          -10.821590074325957,
          2.48789808907947
        ]
      }
    },
    {
      "type": "Feature",
      "properties": {
        "norad_id": 30562,
        "name": "FENGYUN 1C DEB",
        "group": "fengyun-1c-debris",
        "lat": -77.30227675755114,
        "lon": -168.01464679062602,
        "alt_km": 779.9391817729629,
        "timestamp": "2025-12-13T10:41:26.043457+00:00",
        "meta_object_name": "FENGYUN 1C DEB",
        "meta_object_id": "1999-025ALC",
        "meta_epoch": "2025-12-12T03:13:52.669632",
        "meta_mean_motion": 14.2304784,
        "meta_eccentricity": 0.00589767,
        "meta_inclination": 98.7632,
        "meta_ra_of_asc_node": 53.8839,
        "meta_arg_of_pericenter": 267.0867,
        "meta_mean_anomaly": 122.2496,
        "meta_ephemeris_type": 0,
        "meta_classification_type": "U",
        "meta_norad_cat_id": 30562,
        "meta_element_set_no": 999,
        "meta_rev_at_epoch": 96991,
        "meta_bstar": 0.0024379583,
        "meta_mean_motion_dot": 5.554e-05,
        "meta_mean_motion_ddot": 0,
        "tle_line1": "1 30562U 99025ALC 25346.13463738  .00005554  00000+0  24380-2 0  9993",
        "tle_line2": "2 30562  98.7632  53.8839 0058976 267.0867 122.2496 14.23047840969913"
      },
      "geometry": {
        "type": "Point",
        "coordinates": [
          -168.01464679062602,
          -77.30227675755114
        ]
      }
    }
  ]
}